[{"OBJECT_NAME":"TEVEL2-3","OBJECT_ID":"2025-052J","EPOCH":"2026-03-09T15:29:22.754400","MEAN_MOTION":15.30377031,"ECCENTRICITY":0.0004761,"INCLINATION":97.3994,"RA_OF_ASC_NODE":324.7775,"ARG_OF_PERICENTER":105.7353,"MEAN_ANOMALY":254.4413,"EPHEMERIS_TYPE":0,"CLASSIFICATION_TYPE":"U","NORAD_CAT_ID":63218,"ELEMENT_SET_NO":999,"REV_AT_EPOCH":5485,"BSTAR":0.00069446,"MEAN_MOTION_DOT":0.00020365,"MEAN_MOTION_DDOT":0},{"OBJECT_NAME":"STARLINK-34504","OBJECT_ID":"2025-137G","EPOCH":"2026-03-09T23:27:44.697024","MEAN_MOTION":15.30210515,"ECCENTRICITY":8.455e-5,"INCLINATION":53.1584,"RA_OF_ASC_NODE":334.2838,"ARG_OF_PERICENTER":119.8087,"MEAN_ANOMALY":240.2998,"EPHEMERIS_TYPE":0,"CLASSIFICATION_TYPE":"U","NORAD_CAT_ID":64600,"ELEMENT_SET_NO":999,"REV_AT_EPOCH":4077,"BSTAR":0.00082856107,"MEAN_MOTION_DOT":0.00024269,"MEAN_MOTION_DDOT":0}]
